
STARLINK-4385           
1 53198U 22084K   24324.60706021 -.00003360  00000+0 -25726-3 0  9997
2 53198  97.6553  23.2028 0002113 206.6728 153.4388 15.01234002128414
STARLINK-4395           
1 53199U 22084L   24325.13840208  .00001743  00000+0  14023-3 0  9992
2 53199  97.6570  23.7181 0002356 212.6530 147.4549 15.01263677128496
STARLINK-4417           
1 53200U 22084M   24325.13494691  .00001273  00000+0  10370-3 0  9995
2 53200  97.6572  23.7307 0001349 228.2477 131.8632 15.01263058128498
STARLINK-4405           
1 53201U 22084N   24324.59244308 -.00007797  00000+0 -60284-3 0  9991
2 53201  97.6596  23.2075 0000559 187.5054 172.6162 15.01278766128417
STARLINK-4411           
1 53202U 22084P   24325.13102872 -.00001527  00000+0 -11439-3 0  9995
2 53202  97.6573  23.7298 0001069  92.7570 267.3777 15.01238315128490
STARLINK-4409           
1 53203U 22084Q   24324.66074587  .00001616  00000+0  13038-3 0  9998
2 53203  97.6591  23.2599 0000452 257.6140 102.5034 15.01253789128049
STARLINK-4410           
1 53204U 22084R   24325.13124229  .00001364  00000+0  11077-3 0  9992
2 53204  97.6574  23.7247 0000243 199.8439 160.2776 15.01265400128498
STARLINK-4397           
1 53205U 22084S   24324.45705053  .00003301  00000+0  26134-3 0  9990
2 53205  97.6593  23.0643 0001171  77.7954 282.3401 15.01282654128019
STARLINK-4408           
1 53206U 22084T   24324.64592035  .00001311  00000+0  10662-3 0  9994
2 53206  97.6564  23.2920 0001955  86.2027 273.9421 15.01264489128041
STARLINK-4413           
1 53207U 22084U   24325.12174726  .00002059  00000+0  16488-3 0  9994
2 53207  97.6592  23.7222 0001155  90.6558 269.4798 15.01258808128497
STARLINK-4425           
1 53208U 22084V   24324.72923495  .00001554  00000+0  12554-3 0  9994
2 53208  97.6583  23.3262 0000347 200.4509 159.6701 15.01262413128050
STARLINK-4423           
1 53209U 22084W   24325.12013901  .00001879  00000+0  15081-3 0  9990
2 53209  97.6592  23.7215 0001223  87.9652 272.1712 15.01264115128496
STARLINK-4427           
1 53210U 22084X   24325.12544024  .00000024  00000+0  64632-5 0  9996
2 53210  97.6603  23.7218 0000243  71.9508 288.1743 15.01269248128491
STARLINK-4419           
1 53211U 22084Y   24324.44806098  .00001261  00000+0  10271-3 0  9995
2 53211  97.6570  23.0659 0002140  91.7879 268.3591 15.01267871128532
STARLINK-4416           
1 53212U 22084Z   24325.11989415  .00002208  00000+0  17646-3 0  9991
2 53212  97.6591  23.7212 0001819  90.6369 269.5063 15.01265564128491
STARLINK-4414           
1 53213U 22084AA  24324.64407816  .00001275  00000+0  10388-3 0  9998
2 53213  97.6574  23.2564 0002183  89.9668 270.1806 15.01259103128569
STARLINK-4353           
1 53214U 22084AB  24325.11804522  .00001291  00000+0  10511-3 0  9993
2 53214  97.6586  23.7212 0001874  86.7688 273.3751 15.01263097128494
STARLINK-4335           
1 53215U 22084AC  24324.44227159  .00000130  00000+0  14714-4 0  9995
2 53215  97.6562  23.0582 0003230  92.4007 267.7587 15.01258797128539
STARLINK-4376           
1 53216U 22084AD  24324.44781831  .00003456  00000+0  27336-3 0  9995
2 53216  97.6553  23.0615 0002979  88.9916 271.1649 15.01282416128011
STARLINK-4379           
1 53217U 22084AE  24325.09767825  .00000969  00000+0  79988-4 0  9992
2 53217  97.6552  23.7109 0003089  83.7787 276.3789 15.01263479128490
STARLINK-4384           
1 53218U 22084AF  24324.89982813  .00001876  00000+0  15060-3 0  9994
2 53218  97.6554  23.5273 0002611  85.4223 274.7300 15.01267235128605
STARLINK-4373           
1 53219U 22084AG  24325.16803714  .00001325  00000+0  10775-3 0  9995
2 53219  97.6553  23.7640 0002584  89.7569 270.3951 15.01264101128135
STARLINK-4363           
1 53220U 22084AH  24324.44041223  .00001190  00000+0  97205-4 0  9990
2 53220  97.6561  23.0547 0002059  90.8085 269.3375 15.01265875128539
STARLINK-4377           
1 53221U 22084AJ  24324.63296590  .00001038  00000+0  85413-4 0  9990
2 53221  97.6555  23.2341 0002361  87.3915 272.7580 15.01262441128044
STARLINK-4381           
1 53222U 22084AK  24324.43856434  .00002048  00000+0  16398-3 0  9995
2 53222  97.6552  23.0508 0002410  91.8358 268.3142 15.01260118128012
STARLINK-4354           
1 53223U 22084AL  24324.17220440  .00002517  00000+0  20049-3 0  9998
2 53223  97.6549  22.7736 0003259  72.9783 287.1798 15.01251273127974
STARLINK-4356           
1 53224U 22084AM  24325.10323298  .00001290  00000+0  10496-3 0  9990
2 53224  97.6546  23.7025 0002391  88.6897 271.4601 15.01265404128128
STARLINK-4358           
1 53225U 22084AN  24324.62740950  .00002218  00000+0  17724-3 0  9997
2 53225  97.6557  23.2261 0001673  90.9762 269.1654 15.01251239128041
STARLINK-4359           
1 53226U 22084AP  24325.15877671  .00001161  00000+0  94958-4 0  9999
2 53226  97.6563  23.7628 0001593  94.9656 265.1750 15.01261568128137
STARLINK-4366           
1 53227U 22084AQ  24325.14955429  .00021892  00000+0  17029-2 0  9992
2 53227  97.6557  23.7567 0000981 104.8575 255.2758 15.01279084128123
STARLINK-4365           
1 53228U 22084AR  24325.02920937 -.00002378  00000+0 -18074-3 0  9998
2 53228  97.6556  23.6229 0001101 101.9556 258.1792 15.01232243128103
STARLINK-4367           
1 53229U 22084AS  24324.62370665 -.00000633  00000+0 -44705-4 0  9994
2 53229  97.6563  23.2217 0001744  92.4257 267.7166 15.01256816128046
STARLINK-4364           
1 53230U 22084AT  24325.16086892  .00001152  00000+0  94273-4 0  9992
2 53230  97.6563  23.7472 0001689  94.4692 265.6725 15.01268905128500
STARLINK-4370           
1 53231U 22084AU  24324.42006714  .00008361  00000+0  65460-3 0  9990
2 53231  97.6557  23.0205 0001639  86.5492 273.5920 15.01269082128014
STARLINK-4371           
1 53232U 22084AV  24325.15507285  .00001353  00000+0  10990-3 0  9993
2 53232  97.6564  23.7454 0001445  92.7540 267.3850 15.01265515128126
STARLINK-4372           
1 53233U 22084AW  24325.14976075  .00000767  00000+0  64321-4 0  9996
2 53233  97.6565  23.7427 0000757 103.2574 256.8735 15.01263304128127
STARLINK-4368           
1 53234U 22084AX  24325.15136882  .00000834  00000+0  69531-4 0  9995
2 53234  97.6567  23.7371 0000602 100.4611 259.6681 15.01264714128136
CSS (WENTIAN)           
1 53239U 22085A   24324.38988355  .00034385  00000+0  43484-3 0  9991
2 53239  41.4663 216.6873 0002970 330.2203  29.8466 15.58809588124393
STARLINK-4056           
1 53242U 22086A   24324.29864688  .00002298  00000+0  16241-3 0  9997
2 53242  53.2154 173.2204 0001295  85.3720 274.7420 15.08847597129540
STARLINK-4047           
1 53243U 22086B   24324.33679697  .00001782  00000+0  13001-3 0  9995
2 53243  53.2159 177.7517 0001547  89.4516 270.6653 15.08844693129503
STARLINK-4125           
1 53244U 22086C   24324.29636402  .00000104  00000+0  24630-4 0  9996
2 53244  53.2146 178.3205 0001356  87.0286 273.0861 15.08838302129471
STARLINK-4131           
1 53246U 22086E   24324.29267759  .00000720  00000+0  63342-4 0  9990
2 53246  53.2164 178.2567 0001462  94.5537 265.5622 15.08839124128364
STARLINK-4061           
1 53247U 22086F   24324.31341841  .00000027  00000+0  19778-4 0  9993
2 53247  53.2168 173.3487 0001507  93.8797 266.2367 15.08830279129543
STARLINK-4135           
1 53248U 22086G   24324.96475284  .00001246  00000+0  96402-4 0  9997
2 53248  53.2157 170.3472 0001702  88.2765 271.8423 15.08837696129144
STARLINK-4128           
1 53249U 22086H   24324.30559514  .00003853  00000+0  26000-3 0  9997
2 53249  53.2147 168.2111 0001427  83.0064 277.1090 15.08841621129310
STARLINK-4059           
1 53250U 22086J   24324.30831227  .00000599  00000+0  55716-4 0  9994
2 53250  53.2160 168.1884 0001575  90.8585 269.2588 15.08844007129316
STARLINK-4129           
1 53251U 22086K   24324.56224460  .00002878  00000+0  19882-3 0  9993
2 53251  53.2165 167.0543 0001857  75.3777 284.7421 15.08848525129155
STARLINK-4132           
1 53252U 22086L   24324.56590933 -.00000293  00000+0 -33042-6 0  9993
2 53252  53.2164 166.9862 0001336  85.1926 274.9219 15.08848259129356
STARLINK-4133           
1 53253U 22086M   24324.95600258  .00001627  00000+0  12028-3 0  9997
2 53253  53.2162 165.2793 0001371  86.5969 273.5180 15.08847009129210
STARLINK-4134           
1 53254U 22086N   24324.89808017  .00001150  00000+0  90342-4 0  9991
2 53254  53.2148 165.5564 0001292 104.6093 255.5043 15.08845522129201
STARLINK-4142           
1 53255U 22086P   24324.28623485 -.00000094  00000+0  12199-4 0  9990
2 53255  53.2172 168.2866 0001559  83.2685 276.8485 15.08847388129117
STARLINK-4147           
1 53256U 22086Q   24324.55488069  .00002774  00000+0  19230-3 0  9996
2 53256  53.2159 167.0854 0001340  92.6866 267.4279 15.08843148129331
STARLINK-4144           
1 53257U 22086R   24324.54015349  .00001404  00000+0  10627-3 0  9993
2 53257  53.2161 167.1504 0001334 103.7566 256.3575 15.08841391129336
STARLINK-4127           
1 53258U 22086S   24324.94495476  .00001023  00000+0  82382-4 0  9996
2 53258  53.2160 165.3319 0001358  96.3675 263.7472 15.08839879129217
STARLINK-4140           
1 53259U 22086T   24324.30463212  .00001651  00000+0  12190-3 0  9996
2 53259  53.2164 167.8515 0001576  88.6184 271.4988 15.08803464129307
STARLINK-4136           
1 53260U 22086U   24324.27887609  .00001822  00000+0  13254-3 0  9996
2 53260  53.2156 168.3199 0001358  90.5217 269.5930 15.08837930129299
STARLINK-4062           
1 53261U 22086V   24324.52911592 -.00000160  00000+0  80187-5 0  9990
2 53261  53.2158 167.1993 0001412  91.3112 268.8042 15.08839254129337
STARLINK-4085           
1 53262U 22086W   24325.00013717  .00005407  00000+0  35730-3 0  9997
2 53262  53.2159 165.0846 0001186  95.3622 264.7505 15.08868122129224
